{"fetched_at":"2026-03-29T02:12:04Z","count":15717,"tles":[{"name":"GSAT0203 (GALILEO 7)","line1":"1 40544U 15017A   26086.67777373 -.00000097  00000+0  00000+0 0  9995","line2":"2 40544  56.8123 343.8202 0003036 318.8222  41.1887  1.70475469 67818","category":"GPS"}]}