{
  "norad_id": 40544,
  "name": "GSAT0203 (GALILEO 7)",
  "history": [
    {
      "epoch": "2026-03-27T16:15:59.650272",
      "apogee_km": 23230.99961740109,
      "perigee_km": 23213.026406313886,
      "latitude_deg": -28.382213979829807,
      "longitude_deg": 3.4662780798971653,
      "semi_major_axis_km": 29600.150011857484,
      "eccentricity": 0.0003036,
      "inclination_deg": 56.8123,
      "raan_deg": 343.8202,
      "arg_perigee_deg": 318.8222,
      "mean_anomaly_deg": 41.1887,
      "mean_motion_rev_day": 1.70475469
    }
  ]
}